*******************************************************************************
JPL/HORIZONS                     (2020 XF4)                2020-Dec-13 21:16:10
Rec #:50491855 (+COV) Soln.date: 2020-Dec-12_20:42:04        # obs: 30 (8 days)
 
IAU76/J2000 helio. ecliptic osc. elements (au, days, deg., period=Julian yrs):
 
  EPOCH=  2459194.5 ! 2020-Dec-11.00 (TDB)         Residual RMS= .31447
   EC= .2234956475900682   QR= .8032480537856647   TP= 2459269.2531120698
   OM= 86.12241787082033   W=  88.76089189387503   IN= 2.688453879341342
   A= 1.03444114806663     MA= 289.9715248032877   ADIST= 1.265634242347595
   PER= 1.05212            N= .936796761           ANGMOM= .017053263
   DAN= .97804             DDN= .98754             L= 174.8819449
   B= 2.6878247            MOID= .00121704         TP= 2021-Feb-23.7531120698
 
Asteroid physical parameters (km, seconds, rotational period in hours):
   GM= n.a.                RAD= n.a.               ROTPER= n.a.
   H= 27.396               G= .150                 B-V= n.a.
                           ALBEDO= n.a.            STYP= n.a.
 
ASTEROID comments: 
1: soln ref.= JPL#1, OCC=6
2: source=ORB
*******************************************************************************
 
 
*******************************************************************************
Ephemeris / WWW_USER Sun Dec 13 21:16:10 2020 Pasadena, USA      / Horizons    
*******************************************************************************
Target body name: (2020 XF4)                      {source: JPL#1}
Center body name: Solar System Barycenter (0)     {source: DE431}
Center-site name: BODYCENTRIC
*******************************************************************************
Start time      : A.D. 2014-Jan-01 00:00:00.0000 UT      
Stop  time      : A.D. 2023-Jan-01 00:00:00.0000 UT      
Step-size       : 1440 minutes
*******************************************************************************
Target pole/equ : No model available
Target radii    : (unavailable)                                                
Center geodetic : 0.00000000,0.00000000,0.0000000 {E-lon(deg),Lat(deg),Alt(km)}
Center cylindric: 0.00000000,0.00000000,0.0000000 {E-lon(deg),Dxy(km),Dz(km)}
Center pole/equ : ICRF
Center radii    : (undefined)                                                  
Target primary  : Sun
Vis. interferer : None
Rel. light bend : Sun                             {source: DE431}
Rel. lght bnd GM: 1.3271E+11 km^3/s^2                                          
Small-body perts: Yes                             {source: SB431-N16}
Atmos refraction: NO (AIRLESS)
RA format       : DEG
Time format     : CAL 
EOP file        : eop.201211.p210304                                           
EOP coverage    : DATA-BASED 1962-JAN-20 TO 2020-DEC-11. PREDICTS-> 2021-MAR-03
Units conversion: 1 au= 149597870.700 km, c= 299792.458 km/s, 1 day= 86400.0 s 
Table cut-offs 1: Elevation (-90.0deg=NO ),Airmass     n.a.    , Daylight (NO )
Table cut-offs 2: Solar elongation (  0.0,180.0=NO ),Local Hour Angle( 0.0=NO )
Table cut-offs 3: RA/DEC angular rate (     0.0=NO )                           
*******************************************************************************
Initial IAU76/J2000 heliocentric ecliptic osculating elements (au, days, deg.):
  EPOCH=  2459194.5 ! 2020-Dec-11.00 (TDB)         Residual RMS= .31447        
   EC= .2234956475900682   QR= .8032480537856647   TP= 2459269.2531120698      
   OM= 86.12241787082033   W=  88.76089189387503   IN= 2.688453879341342       
  Equivalent ICRF heliocentric equatorial cartesian coordinates (au, au/d):
   X= 1.889719948249124E-01  Y= 9.080578671131178E-01  Z= 3.874587185892806E-01
  VX=-1.736925927111832E-02 VY=-8.729701326044177E-04 VZ= 5.063719046527144E-04
Asteroid physical parameters (km, seconds, rotational period in hours):        
   GM= n.a.                RAD= n.a.               ROTPER= n.a.                
   H= 27.396               G= .150                 B-V= n.a.                   
                           ALBEDO= n.a.            STYP= n.a.                  
*******************************************************************************
 Date__(UT)__HR:MN                delta     GlxLon     GlxLat
*************************************************************
$$SOE
 2021-Jul-22 00:00     1.8563263441E+08  35.753594 -44.357414
 2021-Jul-23 00:00     1.8590060770E+08  36.318664 -44.848622
 2021-Jul-24 00:00     1.8616309554E+08  36.891765 -45.335604
 2021-Jul-25 00:00     1.8642008078E+08  37.473131 -45.818321
 2021-Jul-26 00:00     1.8667154682E+08  38.063000 -46.296732
 2021-Jul-27 00:00     1.8691747763E+08  38.661613 -46.770792
 2021-Jul-28 00:00     1.8715785770E+08  39.269217 -47.240453
 2021-Jul-29 00:00     1.8739267205E+08  39.886063 -47.705665
 2021-Jul-30 00:00     1.8762190621E+08  40.512405 -48.166372
 2021-Jul-31 00:00     1.8784554622E+08  41.148502 -48.622515
 2021-Aug-01 00:00     1.8806357860E+08  41.794614 -49.074032
 2021-Aug-02 00:00     1.8827599034E+08  42.451009 -49.520856
 2021-Aug-03 00:00     1.8848276891E+08  43.117953 -49.962918
 2021-Aug-04 00:00     1.8868390223E+08  43.795720 -50.400144
 2021-Aug-05 00:00     1.8887937868E+08  44.484584 -50.832454
 2021-Aug-06 00:00     1.8906918705E+08  45.184819 -51.259765
 2021-Aug-07 00:00     1.8925331657E+08  45.896705 -51.681992
 2021-Aug-08 00:00     1.8943175690E+08  46.620521 -52.099041
 2021-Aug-09 00:00     1.8960449809E+08  47.356546 -52.510817
 2021-Aug-10 00:00     1.8977153060E+08  48.105060 -52.917220
 2021-Aug-11 00:00     1.8993284529E+08  48.866343 -53.318143
 2021-Aug-12 00:00     1.9008843339E+08  49.640671 -53.713475
 2021-Aug-13 00:00     1.9023828651E+08  50.428320 -54.103103
 2021-Aug-14 00:00     1.9038239664E+08  51.229561 -54.486905
 2021-Aug-15 00:00     1.9052075614E+08  52.044662 -54.864757
 2021-Aug-16 00:00     1.9065335771E+08  52.873883 -55.236528
 2021-Aug-17 00:00     1.9078019442E+08  53.717480 -55.602083
 2021-Aug-18 00:00     1.9090125966E+08  54.575698 -55.961282
 2021-Aug-19 00:00     1.9101654720E+08  55.448775 -56.313979
 2021-Aug-20 00:00     1.9112605110E+08  56.336936 -56.660025
 2021-Aug-21 00:00     1.9122976578E+08  57.240393 -56.999263
 2021-Aug-22 00:00     1.9132768598E+08  58.159345 -57.331534
 2021-Aug-23 00:00     1.9141980675E+08  59.093971 -57.656673
 2021-Aug-24 00:00     1.9150612348E+08  60.044434 -57.974510
 2021-Aug-25 00:00     1.9158663186E+08  61.010877 -58.284872
 2021-Aug-26 00:00     1.9166132787E+08  61.993418 -58.587581
 2021-Aug-27 00:00     1.9173020784E+08  62.992152 -58.882454
 2021-Aug-28 00:00     1.9179326836E+08  64.007143 -59.169305
 2021-Aug-29 00:00     1.9185050634E+08  65.038431 -59.447945
 2021-Aug-30 00:00     1.9190191899E+08  66.086018 -59.718183
 2021-Aug-31 00:00     1.9194750382E+08  67.149875 -59.979822
 2021-Sep-01 00:00     1.9198725862E+08  68.229937 -60.232666
 2021-Sep-02 00:00     1.9202118148E+08  69.326096 -60.476515
 2021-Sep-03 00:00     1.9204927078E+08  70.438205 -60.711171
 2021-Sep-04 00:00     1.9207152518E+08  71.566074 -60.936432
 2021-Sep-05 00:00     1.9208794365E+08  72.709467 -61.152097
 2021-Sep-06 00:00     1.9209852542E+08  73.868100 -61.357967
 2021-Sep-07 00:00     1.9210327003E+08  75.041640 -61.553844
 2021-Sep-08 00:00     1.9210217730E+08  76.229705 -61.739531
 2021-Sep-09 00:00     1.9209524733E+08  77.431860 -61.914836
 2021-Sep-10 00:00     1.9208248051E+08  78.647619 -62.079568
 2021-Sep-11 00:00     1.9206387752E+08  79.876444 -62.233543
 2021-Sep-12 00:00     1.9203943934E+08  81.117743 -62.376582
 2021-Sep-13 00:00     1.9200916722E+08  82.370874 -62.508511
 2021-Sep-14 00:00     1.9197306271E+08  83.635145 -62.629166
 2021-Sep-15 00:00     1.9193112764E+08  84.909811 -62.738387
 2021-Sep-16 00:00     1.9188336416E+08  86.194084 -62.836027
 2021-Sep-17 00:00     1.9182977470E+08  87.487128 -62.921945
 2021-Sep-18 00:00     1.9177036197E+08  88.788067 -62.996014
 2021-Sep-19 00:00     1.9170512902E+08  90.095985 -63.058115
 2021-Sep-20 00:00     1.9163407918E+08  91.409933 -63.108144
 2021-Sep-21 00:00     1.9155721608E+08  92.728931 -63.146005
 2021-Sep-22 00:00     1.9147454367E+08  94.051972 -63.171619
 2021-Sep-23 00:00     1.9138606621E+08  95.378030 -63.184919
 2021-Sep-24 00:00     1.9129178828E+08  96.706063 -63.185851
 2021-Sep-25 00:00     1.9119171476E+08  98.035019 -63.174375
 2021-Sep-26 00:00     1.9108585089E+08  99.363842 -63.150468
 2021-Sep-27 00:00     1.9097420221E+08 100.691478 -63.114116
 2021-Sep-28 00:00     1.9085677460E+08 102.016878 -63.065324
 2021-Sep-29 00:00     1.9073357428E+08 103.339006 -63.004109
 2021-Sep-30 00:00     1.9060460780E+08 104.656847 -62.930502
 2021-Oct-01 00:00     1.9046988208E+08 105.969404 -62.844546
 2021-Oct-02 00:00     1.9032940437E+08 107.275712 -62.746300
 2021-Oct-03 00:00     1.9018318230E+08 108.574837 -62.635833
 2021-Oct-04 00:00     1.9003122385E+08 109.865880 -62.513228
 2021-Oct-05 00:00     1.8987353739E+08 111.147985 -62.378578
 2021-Oct-06 00:00     1.8971013163E+08 112.420338 -62.231987
 2021-Oct-07 00:00     1.8954101572E+08 113.682171 -62.073569
 2021-Oct-08 00:00     1.8936619915E+08 114.932764 -61.903447
 2021-Oct-09 00:00     1.8918569185E+08 116.171448 -61.721753
 2021-Oct-10 00:00     1.8899950413E+08 117.397605 -61.528626
 2021-Oct-11 00:00     1.8880764674E+08 118.610670 -61.324210
 2021-Oct-12 00:00     1.8861013084E+08 119.810129 -61.108659
 2021-Oct-13 00:00     1.8840696803E+08 120.995522 -60.882128
 2021-Oct-14 00:00     1.8819817034E+08 122.166438 -60.644779
 2021-Oct-15 00:00     1.8798375028E+08 123.322521 -60.396774
 2021-Oct-16 00:00     1.8776372080E+08 124.463461 -60.138282
 2021-Oct-17 00:00     1.8753809534E+08 125.588999 -59.869469
 2021-Oct-18 00:00     1.8730688781E+08 126.698922 -59.590507
